{
  "type": "FeatureCollection",
  "features": [
    {
      "type": "Feature",
      "properties": {
        "norad_id": 30921,
        "name": "FENGYUN 1C DEB",
        "group": "fengyun-1c-debris",
        "lat": -64.90462045863235,
        "lon": 106.63365575459814,
        "alt_km": 784.1216236806231,
        "timestamp": "2025-12-25T11:37:44.714835+00:00",
        "meta_object_name": "FENGYUN 1C DEB",
        "meta_object_id": "1999-025AZK",
        "meta_epoch": "2025-12-25T01:01:59.234016",
        "meta_mean_motion": 14.32839996,
        "meta_eccentricity": 0.0016376,
        "meta_inclination": 98.8418,
        "meta_ra_of_asc_node": 86.7713,
        "meta_arg_of_pericenter": 358.113,
        "meta_mean_anomaly": 179.6268,
        "meta_ephemeris_type": 0,
        "meta_classification_type": "U",
        "meta_norad_cat_id": 30921,
        "meta_element_set_no": 999,
        "meta_rev_at_epoch": 97000,
        "meta_bstar": 0.0017954,
        "meta_mean_motion_dot": 4.862e-05,
        "meta_mean_motion_ddot": 0,
        "tle_line1": "1 30921U 99025AZK 25359.04304669  .00004862  00000+0  17954-2 0  9993",
        "tle_line2": "2 30921  98.8418  86.7713 0016376 358.1130 179.6268 14.32839996970000"
      },
      "geometry": {
        "type": "Point",
        "coordinates": [
          106.63365575459814,
          -64.90462045863235
        ]
      }
    },
    {
      "type": "Feature",
      "properties": {
        "norad_id": 30922,
        "name": "FENGYUN 1C DEB",
        "group": "fengyun-1c-debris",
        "lat": -74.66817391765028,
        "lon": 161.29564214798927,
        "alt_km": 846.3748732179974,
        "timestamp": "2025-12-25T11:37:44.714845+00:00",
        "meta_object_name": "FENGYUN 1C DEB",
        "meta_object_id": "1999-025AZL",
        "meta_epoch": "2025-12-24T20:00:24.800832",
        "meta_mean_motion": 14.17488428,
        "meta_eccentricity": 0.00140992,
        "meta_inclination": 98.6396,
        "meta_ra_of_asc_node": 14.3427,
        "meta_arg_of_pericenter": 20.1121,
        "meta_mean_anomaly": 157.5139,
        "meta_ephemeris_type": 0,
        "meta_classification_type": "U",
        "meta_norad_cat_id": 30922,
        "meta_element_set_no": 999,
        "meta_rev_at_epoch": 96735,
        "meta_bstar": 0.00058047136,
        "meta_mean_motion_dot": 1.136e-05,
        "meta_mean_motion_ddot": 0,
        "tle_line1": "1 30922U 99025AZL 25358.83362038  .00001136  00000+0  58047-3 0  9994",
        "tle_line2": "2 30922  98.6396  14.3427 0014099  20.1121 157.5139 14.17488428967358"
      },
      "geometry": {
        "type": "Point",
        "coordinates": [
          161.29564214798927,
          -74.66817391765028
        ]
      }
    },
    {
      "type": "Feature",
      "properties": {
        "norad_id": 30925,
        "name": "FENGYUN 1C DEB",
        "group": "fengyun-1c-debris",
        "lat": 55.719120425901664,
        "lon": -34.93308333518894,
        "alt_km": 736.9348455994996,
        "timestamp": "2025-12-25T11:37:44.714857+00:00",
        "meta_object_name": "FENGYUN 1C DEB",
        "meta_object_id": "1999-025AZP",
        "meta_epoch": "2025-12-24T20:47:04.833024",
        "meta_mean_motion": 14.43312288,
        "meta_eccentricity": 0.00334068,
        "meta_inclination": 98.8815,
        "meta_ra_of_asc_node": 131.1612,
        "meta_arg_of_pericenter": 202.4546,
        "meta_mean_anomaly": 309.1656,
        "meta_ephemeris_type": 0,
        "meta_classification_type": "U",
        "meta_norad_cat_id": 30925,
        "meta_element_set_no": 999,
        "meta_rev_at_epoch": 97247,
        "meta_bstar": 0.0026228853,
        "meta_mean_motion_dot": 8.862e-05,
        "meta_mean_motion_ddot": 0,
        "tle_line1": "1 30925U 99025AZP 25358.86602816  .00008862  00000+0  26229-2 0  9990",
        "tle_line2": "2 30925  98.8815 131.1612 0033406 202.4546 309.1656 14.43312288972479"
      },
      "geometry": {
        "type": "Point",
        "coordinates": [
          -34.93308333518894,
          55.719120425901664
        ]
      }
    },
    {
      "type": "Feature",
      "properties": {
        "norad_id": 30926,
        "name": "FENGYUN 1C DEB",
        "group": "fengyun-1c-debris",
        "lat": -46.60841165131309,
        "lon": 112.21951935308067,
        "alt_km": 650.5771280563376,
        "timestamp": "2025-12-25T11:37:44.714868+00:00",
        "meta_object_name": "FENGYUN 1C DEB",
        "meta_object_id": "1999-025AZQ",
        "meta_epoch": "2025-12-25T02:32:25.846080",
        "meta_mean_motion": 14.89526144,
        "meta_eccentricity": 0.0164487,
        "meta_inclination": 98.8038,
        "meta_ra_of_asc_node": 301.2337,
        "meta_arg_of_pericenter": 342.0877,
        "meta_mean_anomaly": 17.4581,
        "meta_ephemeris_type": 0,
        "meta_classification_type": "U",
        "meta_norad_cat_id": 30926,
        "meta_element_set_no": 999,
        "meta_rev_at_epoch": 951,
        "meta_bstar": 0.00070364,
        "meta_mean_motion_dot": 8.583e-05,
        "meta_mean_motion_ddot": 0,
        "tle_line1": "1 30926U 99025AZQ 25359.10585470  .00008583  00000+0  70364-3 0  9995",
        "tle_line2": "2 30926  98.8038 301.2337 0164487 342.0877  17.4581 14.89526144  9513"
      },
      "geometry": {
        "type": "Point",
        "coordinates": [
          112.21951935308067,
          -46.60841165131309
        ]
      }
    },
    {
      "type": "Feature",
      "properties": {
        "norad_id": 30927,
        "name": "FENGYUN 1C DEB",
        "group": "fengyun-1c-debris",
        "lat": -18.005552133598695,
        "lon": 63.20781260733403,
        "alt_km": 797.8391415665064,
        "timestamp": "2025-12-25T11:37:44.714878+00:00",
        "meta_object_name": "FENGYUN 1C DEB",
        "meta_object_id": "1999-025AZR",
        "meta_epoch": "2025-12-24T03:20:02.562720",
        "meta_mean_motion": 14.09040161,
        "meta_eccentricity": 0.00983671,
        "meta_inclination": 99.1815,
        "meta_ra_of_asc_node": 58.8239,
        "meta_arg_of_pericenter": 333.5888,
        "meta_mean_anomaly": 26.0286,
        "meta_ephemeris_type": 0,
        "meta_classification_type": "U",
        "meta_norad_cat_id": 30927,
        "meta_element_set_no": 999,
        "meta_rev_at_epoch": 95844,
        "meta_bstar": 0.0015378129,
        "meta_mean_motion_dot": 2.741e-05,
        "meta_mean_motion_ddot": 0,
        "tle_line1": "1 30927U 99025AZR 25358.13891855  .00002741  00000+0  15378-2 0  9998",
        "tle_line2": "2 30927  99.1815  58.8239 0098367 333.5888  26.0286 14.09040161958442"
      },
      "geometry": {
        "type": "Point",
        "coordinates": [
          63.20781260733403,
          -18.005552133598695
        ]
      }
    },
    {
      "type": "Feature",
      "properties": {
        "norad_id": 30928,
        "name": "FENGYUN 1C DEB",
        "group": "fengyun-1c-debris",
        "lat": -38.71879646734038,
        "lon": 94.1121419668019,
        "alt_km": 915.3778195261029,
        "timestamp": "2025-12-25T11:37:44.714887+00:00",
        "meta_object_name": "FENGYUN 1C DEB",
        "meta_object_id": "1999-025AZS",
        "meta_epoch": "2025-12-24T05:11:59.057664",
        "meta_mean_motion": 13.22254347,
        "meta_eccentricity": 0.04498554,
        "meta_inclination": 98.8822,
        "meta_ra_of_asc_node": 85.829,
        "meta_arg_of_pericenter": 3.7388,
        "meta_mean_anomaly": 48.0779,
        "meta_ephemeris_type": 0,
        "meta_classification_type": "U",
        "meta_norad_cat_id": 30928,
        "meta_element_set_no": 999,
        "meta_rev_at_epoch": 90500,
        "meta_bstar": 0.0011187568,
        "meta_mean_motion_dot": 7.59e-06,
        "meta_mean_motion_ddot": 0,
        "tle_line1": "1 30928U 99025AZS 25358.21665576  .00000759  00000+0  11188-2 0  9999",
        "tle_line2": "2 30928  98.8822  85.8290 0449855   3.7388  48.0779 13.22254347905009"
      },
      "geometry": {
        "type": "Point",
        "coordinates": [
          94.1121419668019,
          -38.71879646734038
        ]
      }
    },
    {
      "type": "Feature",
      "properties": {
        "norad_id": 30930,
        "name": "FENGYUN 1C DEB",
        "group": "fengyun-1c-debris",
        "lat": -19.917609578157986,
        "lon": 30.21071561564719,
        "alt_km": 769.1899842351786,
        "timestamp": "2025-12-25T11:37:44.714897+00:00",
        "meta_object_name": "FENGYUN 1C DEB",
        "meta_object_id": "1999-025AZU",
        "meta_epoch": "2025-12-24T07:35:54.253824",
        "meta_mean_motion": 14.37414538,
        "meta_eccentricity": 0.01096647,
        "meta_inclination": 98.2146,
        "meta_ra_of_asc_node": 26.0944,
        "meta_arg_of_pericenter": 71.9242,
        "meta_mean_anomaly": 349.0631,
        "meta_ephemeris_type": 0,
        "meta_classification_type": "U",
        "meta_norad_cat_id": 30930,
        "meta_element_set_no": 999,
        "meta_rev_at_epoch": 98498,
        "meta_bstar": 0.00032538057,
        "meta_mean_motion_dot": 1e-05,
        "meta_mean_motion_ddot": 0,
        "tle_line1": "1 30930U 99025AZU 25358.31660016  .00001000  00000+0  32538-3 0  9990",
        "tle_line2": "2 30930  98.2146  26.0944 0109664  71.9242 349.0631 14.37414538984987"
      },
      "geometry": {
        "type": "Point",
        "coordinates": [
          30.21071561564719,
          -19.917609578157986
        ]
      }
    }
  ]
}